{"type":"FeatureCollection","meta":{"attribution":"© OpenStreetMap contributors","licence":"ODbL 1.0","source":"2026-10-04T10:56:06Z","centre":[114.01708517067661,4.511860631358688],"bounds":[114.0104279,4.5068047,114.0229388,4.5202922],"rooms":{"Auditorium":"FN4","Harry Perkins LT":"FN1","Harry Perkins Lecture Theatre":"FN1"}},"features":[{"type":"Feature","properties":{"kind":"campus","name":"Curtin University Malaysia"},"geometry":{"type":"Polygon","coordinates":[[[114.0132333,4.5098493],[114.0139511,4.5094779],[114.0198639,4.5094543],[114.0205054,4.5096568],[114.0213275,4.5112202],[114.021472,4.5122119],[114.0212809,4.5132339],[114.0204577,4.513617],[114.0194065,4.5135215],[114.0193426,4.5149404],[114.01677,4.5149602],[114.0167302,4.5147211],[114.0166323,4.5144636],[114.0165152,4.5142575],[114.0163533,4.5140509],[114.0162371,4.514042],[114.0161552,4.5139744],[114.0161413,4.5138619],[114.0159601,4.5137453],[114.0157932,4.513664],[114.0155132,4.5135684],[114.0153228,4.5135403],[114.0150402,4.5135393],[114.0147411,4.513595],[114.014745,4.5136483],[114.0136854,4.5137613],[114.0128207,4.5130393],[114.0125109,4.5112907],[114.0132333,4.5098493]]]}},{"type":"Feature","id":315410721,"properties":{"kind":"building","osm":"way/315410721","code":"HN2","name":"Heron 2","osmName":"Faculty of Business","zh":"商学院","levels":2,"height":7.8,"base":0,"centre":[114.01778365596444,4.513677967054077]},"geometry":{"type":"Polygon","coordinates":[[[114.0176012,4.5138904],[114.0177972,4.5138909],[114.0179677,4.5138913],[114.0179686,4.5134925],[114.0178705,4.5134923],[114.0178706,4.5134565],[114.0177931,4.5134469],[114.0176819,4.513433],[114.0176651,4.5134918],[114.0176022,4.5134917],[114.0176022,4.5135094],[114.0176012,4.5138904]]]}},{"type":"Feature","id":315410722,"properties":{"kind":"building","osm":"way/315410722","code":"HN3","name":"Heron 3","osmName":"Recreation & Event Centre","zh":"体育活动中心","levels":2,"height":7.8,"base":0,"centre":[114.01778021926336,4.514513003608969]},"geometry":{"type":"Polygon","coordinates":[[[114.0175878,4.5147397],[114.0176392,4.5147393],[114.0178644,4.5147377],[114.0179673,4.5147369],[114.0179639,4.5142767],[114.0177958,4.514278],[114.0176328,4.5142792],[114.0176334,4.5143711],[114.0175851,4.5143714],[114.0175878,4.5147397]]]}},{"type":"Feature","id":315410723,"properties":{"kind":"building","osm":"way/315410723","code":"PA1","name":"Prinia 1","osmName":"Curtin Malaysia Graduate School / Student Affairs Office","zh":"研究生院 · 学生事务处","levels":2,"height":7.8,"base":0,"centre":[114.01671768369987,4.512851577519667]},"geometry":{"type":"Polygon","coordinates":[[[114.0165202,4.5129831],[114.0169413,4.5129313],[114.0169152,4.5127201],[114.0164941,4.5127718],[114.0165202,4.5129831]]]}},{"type":"Feature","id":315410724,"properties":{"kind":"building","osm":"way/315410724","code":"PA2","name":"Prinia 2","osmName":"Faculty of Humanities","zh":"人文学院","levels":2,"height":7.8,"base":0,"centre":[114.01622505,4.51291085]},"geometry":{"type":"Polygon","coordinates":[[[114.0160609,4.5130409],[114.0164158,4.5129976],[114.0163892,4.5127808],[114.0160343,4.5128241],[114.0160609,4.5130409]]]}},{"type":"Feature","id":315410725,"properties":{"kind":"building","osm":"way/315410725","code":"PA3","name":"Prinia 3","osmName":"Distributed Learning Space","zh":"Distributed Learning Space","levels":2,"height":7.8,"base":0,"centre":[114.01573225,4.512969549999999]},"geometry":{"type":"Polygon","coordinates":[[[114.0155356,4.5131021],[114.0159556,4.5130497],[114.0159289,4.512837],[114.0155089,4.5128894],[114.0155356,4.5131021]]]}},{"type":"Feature","id":315410726,"properties":{"kind":"building","osm":"way/315410726","code":"SK1","name":"Skylark 1","osmName":"Faculty of Engineering and Science","zh":"工程与科学学院","levels":4,"height":15,"base":0,"centre":[114.01623225172425,4.511665829009989]},"geometry":{"type":"Polygon","coordinates":[[[114.015889,4.5117374],[114.0163791,4.5118026],[114.016373,4.5118476],[114.0165197,4.5118672],[114.0165652,4.5115277],[114.0164131,4.5115074],[114.0164028,4.5115838],[114.0159144,4.5115187],[114.0159118,4.5115383],[114.0158444,4.5115293],[114.0158619,4.5116933],[114.0158943,4.5116976],[114.015889,4.5117374]]]}},{"type":"Feature","id":315410727,"properties":{"kind":"building","osm":"way/315410727","code":"SK2","name":"Skylark 2","osmName":"Faculty of Engineering and Science","zh":"工程与科学学院","levels":4,"height":15,"base":0,"centre":[114.01621519409927,4.5120578941600735]},"geometry":{"type":"Polygon","coordinates":[[[114.0159558,4.5121451],[114.0164928,4.5122126],[114.0165688,4.512012],[114.0160772,4.5119573],[114.0160869,4.5118705],[114.0159337,4.5118535],[114.0159253,4.511928],[114.0159558,4.5121451]]]}},{"type":"Feature","id":315410729,"properties":{"kind":"building","osm":"way/315410729","code":"HL2","name":"Hornbill 2","osmName":"HDR Centre / FYE Studios","zh":"HDR Centre · FYE Studios · LTCL / LTBS 讲堂","levels":1,"height":4.2,"base":0,"centre":[114.01679535840906,4.511640892700834]},"geometry":{"type":"Polygon","coordinates":[[[114.0166474,4.5116826],[114.0166575,4.5116844],[114.0166484,4.5117476],[114.0167295,4.5117602],[114.0167507,4.5116995],[114.0169572,4.5117215],[114.0169596,4.5115731],[114.0166659,4.5115391],[114.0166474,4.5116826]]]}},{"type":"Feature","id":315410730,"properties":{"kind":"building","osm":"way/315410730","code":"FN3","name":"Falcon 3","osmName":"Food Court","zh":"美食广场 Food Court","levels":2,"height":7.8,"base":0,"centre":[114.01674322665104,4.512130870559511]},"geometry":{"type":"Polygon","coordinates":[[[114.0165904,4.5122194],[114.0168716,4.5122519],[114.0168961,4.5120424],[114.0166148,4.5120098],[114.0166129,4.5120265],[114.0165904,4.5122194]]]}},{"type":"Feature","id":315410731,"properties":{"kind":"building","osm":"way/315410731","code":"HL1","name":"Hornbill 1","osmName":"ICT Labs","zh":"ICT 电脑室","levels":1,"height":4.2,"base":0,"centre":[114.01682383734727,4.511387142490514]},"geometry":{"type":"Polygon","coordinates":[[[114.0166487,4.5115168],[114.0167643,4.5115372],[114.0167757,4.5114219],[114.0170482,4.5114366],[114.0170567,4.5113424],[114.0169558,4.511311],[114.0167177,4.5112779],[114.0167102,4.5112988],[114.0166712,4.5113135],[114.0166487,4.5115168]]]}},{"type":"Feature","id":544448845,"properties":{"kind":"building","osm":"way/544448845","code":"FN4","name":"Falcon 4","osmName":"Library & Auditorium","zh":"图书馆 · 礼堂 Auditorium","levels":3,"height":11.4,"base":0,"centre":[114.01793778237267,4.5120405639622305]},"geometry":{"type":"Polygon","coordinates":[[[114.0180876,4.5118809],[114.018129,4.5119286],[114.0181806,4.5120115],[114.0182028,4.5120643],[114.0182121,4.5121267],[114.0182008,4.5121895],[114.0181794,4.5122337],[114.0181354,4.5122742],[114.0180987,4.5122937],[114.0180557,4.5123019],[114.0179969,4.512304],[114.0179162,4.5122798],[114.0178168,4.5122218],[114.0177986,4.5122035],[114.017742,4.5121465],[114.0176855,4.5120562],[114.0176634,4.5119751],[114.0176707,4.5118996],[114.0177031,4.5118386],[114.0177494,4.5117989],[114.017807,4.5117784],[114.0178759,4.5117806],[114.017939,4.511796],[114.0180086,4.5118263],[114.0180876,4.5118809]]]}},{"type":"Feature","id":544980501,"properties":{"kind":"building","osm":"way/544980501","code":null,"name":null,"osmName":"Sarawak Bio Valley Plant","zh":null,"levels":2,"height":7.8,"base":0,"centre":[114.01341988892824,4.5107678872548185]},"geometry":{"type":"Polygon","coordinates":[[[114.0130978,4.5108769],[114.0135481,4.5111021],[114.0136317,4.5109358],[114.0137049,4.5107904],[114.0137616,4.5106777],[114.0132761,4.510435],[114.0131387,4.510708],[114.0131739,4.5107256],[114.0130978,4.5108769]]]}},{"type":"Feature","id":599292728,"properties":{"kind":"building","osm":"way/599292728","code":null,"name":null,"osmName":"Borneo Pavilion","zh":null,"levels":1,"height":4.2,"base":0,"centre":[114.01696442528389,4.512381443627036]},"geometry":{"type":"Polygon","coordinates":[[[114.0168938,4.5124337],[114.0168955,4.5123269],[114.0170351,4.5123292],[114.0170333,4.512436],[114.0168938,4.5124337]]]}},{"type":"Feature","id":599292750,"properties":{"kind":"building","osm":"way/599292750","code":"KR3","name":"Kingfisher 3","osmName":"Sibuti","zh":"学生宿舍 Sibuti","levels":3,"height":11.4,"base":0,"centre":[114.01466179422121,4.512660867402323]},"geometry":{"type":"Polygon","coordinates":[[[114.014509,4.5126283],[114.014523,4.5127323],[114.0146687,4.5127129],[114.0148145,4.5126935],[114.0148006,4.5125894],[114.014509,4.5126283]]]}},{"type":"Feature","id":599292752,"properties":{"kind":"building","osm":"way/599292752","code":"KR4","name":"Kingfisher 4","osmName":"Mulu","zh":"学生宿舍 Mulu","levels":3,"height":11.4,"base":0,"centre":[114.01461265,4.5124809]},"geometry":{"type":"Polygon","coordinates":[[[114.0144735,4.5125506],[114.01446,4.5124501],[114.0147518,4.5124112],[114.0147653,4.5125117],[114.0144735,4.5125506]]]}},{"type":"Feature","id":599292753,"properties":{"kind":"building","osm":"way/599292753","code":"KR5","name":"Kingfisher 5","osmName":"Kingfisher 5 (Multipurpose Hall)","zh":"多功能厅 Multipurpose Hall","levels":2,"height":7.8,"base":0,"centre":[114.0146269062394,4.512158351050945]},"geometry":{"type":"Polygon","coordinates":[[[114.0145304,4.5122995],[114.0146883,4.5123178],[114.0147234,4.5120172],[114.0145655,4.5119989],[114.0145494,4.512137],[114.0145304,4.5122995]]]}},{"type":"Feature","id":599292754,"properties":{"kind":"building","osm":"way/599292754","code":null,"name":null,"osmName":"Lakeside Cafeteria","zh":null,"levels":1,"height":4.2,"base":0,"centre":[114.01439316689374,4.512204950851299]},"geometry":{"type":"Polygon","coordinates":[[[114.0143258,4.5121113],[114.014307,4.5122739],[114.0144802,4.5122938],[114.0144596,4.5121267],[114.0143258,4.5121113]]]}},{"type":"Feature","id":599292755,"properties":{"kind":"building","osm":"way/599292755","code":null,"name":null,"osmName":"Curtin Malaysia Student Council","zh":null,"levels":1,"height":4.2,"base":0,"centre":[114.01428039484334,4.51218848704444]},"geometry":{"type":"Polygon","coordinates":[[[114.014307,4.5122739],[114.0142349,4.5122656],[114.0142539,4.512103],[114.0143258,4.5121113],[114.014307,4.5122739]]]}},{"type":"Feature","id":599292757,"properties":{"kind":"building","osm":"way/599292757","code":"KR2","name":"Kingfisher 2","osmName":"Similajau","zh":"学生宿舍 Similajau","levels":3,"height":11.4,"base":0,"centre":[114.01422737589908,4.5127176782582215]},"geometry":{"type":"Polygon","coordinates":[[[114.0143692,4.5126495],[114.0143815,4.5127501],[114.0140856,4.5127859],[114.0140733,4.5126852],[114.0143692,4.5126495]]]}},{"type":"Feature","id":599292760,"properties":{"kind":"building","osm":"way/599292760","code":"KR6","name":"Kingfisher 6","osmName":"Niah","zh":"学生宿舍 Niah","levels":3,"height":11.4,"base":0,"centre":[114.01422979431273,4.51188438083851]},"geometry":{"type":"Polygon","coordinates":[[[114.0140911,4.5118133],[114.0140777,4.5119189],[114.0143685,4.5119555],[114.0143818,4.5118498],[114.0140911,4.5118133]]]}},{"type":"Feature","id":599292761,"properties":{"kind":"building","osm":"way/599292761","code":"KR7","name":"Kingfisher 7","osmName":"Lambir","zh":"学生宿舍 Lambir","levels":3,"height":11.4,"base":0,"centre":[114.0146742722794,4.511745253068316]},"geometry":{"type":"Polygon","coordinates":[[[114.0145361,4.5116697],[114.0145224,4.5117874],[114.0148125,4.5118208],[114.0148261,4.5117031],[114.0145361,4.5116697]]]}},{"type":"Feature","id":599292765,"properties":{"kind":"building","osm":"way/599292765","code":null,"name":null,"osmName":null,"zh":null,"levels":2,"height":7.8,"base":0,"centre":[114.01430957517346,4.5096573919596405]},"geometry":{"type":"Polygon","coordinates":[[[114.0142713,4.5096936],[114.0143471,4.5096944],[114.0143479,4.5096212],[114.014272,4.5096204],[114.0142713,4.5096936]]]}},{"type":"Feature","id":599704619,"properties":{"kind":"building","osm":"way/599704619","code":"HN4","name":"Heron 4","osmName":"Azman Islamic Centre","zh":"Azman 伊斯兰中心（祈祷室）","levels":1,"height":4.2,"base":0,"centre":[114.0182966790733,4.514645570193989]},"geometry":{"type":"Polygon","coordinates":[[[114.0181979,4.5146019],[114.0182519,4.5147436],[114.0183954,4.5146892],[114.0183821,4.5146541],[114.0183576,4.5145898],[114.0183415,4.5145476],[114.0181979,4.5146019]]]}},{"type":"Feature","id":599704626,"properties":{"kind":"building","osm":"way/599704626","code":"FN1","name":"Falcon 1","osmName":"Harry Perkins Lecture Theatre","zh":"Harry Perkins 讲堂","levels":1,"height":4.2,"base":0,"centre":[114.01726489313245,4.512132622322823]},"geometry":{"type":"Polygon","coordinates":[[[114.0173912,4.5122422],[114.0171382,4.5122423],[114.0171387,4.5120227],[114.0173917,4.5120233],[114.0173917,4.5120416],[114.0173912,4.5122422]]]}},{"type":"Feature","id":626547625,"properties":{"kind":"building","osm":"way/626547625","code":null,"name":null,"osmName":"ICT Helpdesk","zh":null,"levels":2,"height":7.8,"base":0,"centre":[114.01700597553315,4.51147934095712]},"geometry":{"type":"Polygon","coordinates":[[[114.0169683,4.5115178],[114.0170411,4.5115201],[114.0170437,4.5114409],[114.0169708,4.5114386],[114.0169683,4.5115178]]]}},{"type":"Feature","id":626547627,"properties":{"kind":"building","osm":"way/626547627","code":null,"name":null,"osmName":null,"zh":null,"levels":1,"height":4.2,"base":0,"centre":[114.01670626587511,4.511840527734096]},"geometry":{"type":"Polygon","coordinates":[[[114.0166314,4.5118669],[114.0167713,4.5118859],[114.0167811,4.5118141],[114.0166412,4.5117952],[114.0166314,4.5118669]]]}},{"type":"Feature","id":626547628,"properties":{"kind":"building","osm":"way/626547628","code":null,"name":null,"osmName":"Music Room","zh":null,"levels":1,"height":4.2,"base":0,"centre":[114.01682501120621,4.511858728385008]},"geometry":{"type":"Polygon","coordinates":[[[114.016776,4.5118847],[114.0168661,4.5118959],[114.016874,4.5118328],[114.016784,4.5118215],[114.016776,4.5118847]]]}},{"type":"Feature","id":631724243,"properties":{"kind":"building","osm":"way/631724243","code":null,"name":null,"osmName":"Student Common Area","zh":null,"levels":1,"height":4.2,"base":0,"centre":[114.01450485965515,4.512206480627254]},"geometry":{"type":"Polygon","coordinates":[[[114.0145494,4.512137],[114.0144596,4.5121267],[114.0144802,4.5122938],[114.0145304,4.5122995],[114.0145494,4.512137]]]}},{"type":"Feature","id":689488353,"properties":{"kind":"building","osm":"way/689488353","code":null,"name":null,"osmName":"Curtin Trading Room","zh":null,"levels":1,"height":4.2,"base":0,"centre":[114.01802495,4.513574950000002]},"geometry":{"type":"Polygon","coordinates":[[[114.0179751,4.5136603],[114.0180756,4.5136599],[114.0180748,4.5134896],[114.0179743,4.51349],[114.0179751,4.5136603]]]}},{"type":"Feature","id":1235776427,"properties":{"kind":"building","osm":"way/1235776427","code":"KR8","name":"Kingfisher 8","osmName":null,"zh":"学生宿舍","levels":3,"height":11.4,"base":0,"centre":[114.01653418144687,4.510547713543072]},"geometry":{"type":"Polygon","coordinates":[[[114.0162907,4.5106777],[114.0166928,4.5106751],[114.0166905,4.510334],[114.016545,4.5103349],[114.0165463,4.5105343],[114.0162898,4.510536],[114.0162907,4.5106777]]]}},{"type":"Feature","id":1235776428,"properties":{"kind":"building","osm":"way/1235776428","code":"KR9","name":"Kingfisher 9","osmName":null,"zh":"学生宿舍","levels":3,"height":11.4,"base":0,"centre":[114.01653158216766,4.510084886985171]},"geometry":{"type":"Polygon","coordinates":[[[114.016547,4.5102957],[114.0166917,4.5102946],[114.0166893,4.5099561],[114.0162892,4.509959],[114.0162902,4.5101044],[114.0165455,4.5101026],[114.016547,4.5102957]]]}},{"type":"Feature","id":1235776429,"properties":{"kind":"building","osm":"way/1235776429","code":"FN6","name":"Falcon 6","osmName":"Engineering Research Lab","zh":"工程研究实验室","levels":2,"height":7.8,"base":0,"centre":[114.01800991862892,4.511029820235432]},"geometry":{"type":"Polygon","coordinates":[[[114.0178791,4.5112098],[114.0180314,4.511251],[114.0181407,4.5108498],[114.0179885,4.5108086],[114.0178791,4.5112098]]]}},{"type":"Feature","id":1235776430,"properties":{"kind":"building","osm":"way/1235776430","code":"FN5","name":"Falcon 5","osmName":"Cafeteria","zh":"食堂 Cafeteria","levels":1,"height":4.2,"base":0,"centre":[114.01749625338711,4.51178082522741]},"geometry":{"type":"Polygon","coordinates":[[[114.0174113,4.5119841],[114.0175773,4.5119857],[114.0175812,4.5115775],[114.0174152,4.511576],[114.0174113,4.5119841]]]}},{"type":"Feature","id":1235776432,"properties":{"kind":"building","osm":"way/1235776432","code":null,"name":null,"osmName":null,"zh":null,"levels":1,"height":4.2,"base":0,"centre":[114.0130447,4.5111789]},"geometry":{"type":"Polygon","coordinates":[[[114.0129207,4.5111658],[114.0131286,4.5112709],[114.0131687,4.511192],[114.0129608,4.5110869],[114.0129207,4.5111658]]]}},{"type":"Feature","id":1235776433,"properties":{"kind":"building","osm":"way/1235776433","code":null,"name":null,"osmName":null,"zh":null,"levels":2,"height":7.8,"base":0,"centre":[114.014563,4.509651049999999]},"geometry":{"type":"Polygon","coordinates":[[[114.014538,4.50968],[114.0145865,4.5096813],[114.014588,4.5096221],[114.0145395,4.5096208],[114.014538,4.50968]]]}},{"type":"Feature","id":1235776434,"properties":{"kind":"building","osm":"way/1235776434","code":null,"name":null,"osmName":null,"zh":null,"levels":1,"height":4.2,"base":0,"centre":[114.01812567040585,4.510744903983257]},"geometry":{"type":"Polygon","coordinates":[[[114.0180721,4.5107614],[114.018164,4.5107857],[114.0181792,4.5107284],[114.0180874,4.5107041],[114.0180721,4.5107614]]]}},{"type":"Feature","id":1235776437,"properties":{"kind":"building","osm":"way/1235776437","code":null,"name":null,"osmName":"Security guard house","zh":null,"levels":1,"height":4.2,"base":0,"centre":[114.0189838,4.51484155]},"geometry":{"type":"Polygon","coordinates":[[[114.0189434,4.5148742],[114.0190238,4.5148747],[114.0190242,4.5148089],[114.0189438,4.5148084],[114.0189434,4.5148742]]]}},{"type":"Feature","id":1311221503,"properties":{"kind":"building","osm":"way/1311221503","code":null,"name":null,"osmName":null,"zh":null,"levels":1,"height":4.2,"base":0,"centre":[114.01981569381562,4.512202973739125]},"geometry":{"type":"Polygon","coordinates":[[[114.0196721,4.5122287],[114.0199502,4.5122594],[114.0199593,4.5121773],[114.0196813,4.5121465],[114.0196721,4.5122287]]]}},{"type":"Feature","id":1311221506,"properties":{"kind":"building","osm":"way/1311221506","code":null,"name":null,"osmName":null,"zh":null,"levels":1,"height":4.2,"base":0,"centre":[114.01842432285447,4.514675435935503]},"geometry":{"type":"Polygon","coordinates":[[[114.018407,4.5147192],[114.0184665,4.5146969],[114.0184418,4.5146316],[114.0183821,4.5146541],[114.0183954,4.5146892],[114.018407,4.5147192]]]}},{"type":"Feature","id":1311221507,"properties":{"kind":"building","osm":"way/1311221507","code":null,"name":null,"osmName":null,"zh":null,"levels":1,"height":4.2,"base":0,"centre":[114.01837512156591,4.514545935282504]},"geometry":{"type":"Polygon","coordinates":[[[114.0183576,4.5145898],[114.0184174,4.5145672],[114.0183925,4.514502],[114.0183332,4.5145245],[114.0183415,4.5145476],[114.0183576,4.5145898]]]}},{"type":"Feature","id":1311221509,"properties":{"kind":"building","osm":"way/1311221509","code":null,"name":null,"osmName":null,"zh":null,"levels":1,"height":4.2,"base":0,"centre":[114.0177519803701,4.51476545056263]},"geometry":{"type":"Polygon","coordinates":[[[114.0176397,4.5147933],[114.0178649,4.5147915],[114.0178644,4.5147377],[114.0176392,4.5147393],[114.0176397,4.5147933]]]}},{"type":"Feature","id":1311241544,"properties":{"kind":"building","osm":"way/1311241544","code":"HN1","name":"Heron 1","osmName":"Administration & International Student Office","zh":"行政楼 · 国际学生办公室","levels":1,"height":4.2,"base":0,"centre":[114.01772827679642,4.512748504158759]},"geometry":{"type":"Polygon","coordinates":[[[114.017591,4.5129033],[114.0178355,4.5129031],[114.0178355,4.5128854],[114.0178859,4.5128855],[114.0178766,4.512847],[114.0179287,4.5128469],[114.0179285,4.5126649],[114.0178996,4.512665],[114.0179041,4.5126483],[114.0178354,4.5126477],[114.0178353,4.5125827],[114.0175907,4.5125829],[114.0175907,4.5126453],[114.0175291,4.5126447],[114.0175513,4.5127121],[114.0175501,4.5128191],[114.0175252,4.5128848],[114.0175909,4.512885],[114.017591,4.5129033]]]}},{"type":"Feature","id":1311241546,"properties":{"kind":"roof","osm":"way/1311241546","code":null,"name":null,"osmName":null,"zh":null,"levels":2,"height":3.4,"base":2.8,"centre":[114.01771311107609,4.51294750211243]},"geometry":{"type":"Polygon","coordinates":[[[114.0176336,4.5129033],[114.0176345,4.5129926],[114.0177931,4.5129909],[114.0177922,4.5129032],[114.0176336,4.5129033]]]}},{"type":"Feature","id":1311241547,"properties":{"kind":"building","osm":"way/1311241547","code":null,"name":null,"osmName":"Council-Room","zh":null,"levels":2,"height":7.8,"base":0,"centre":[114.01781634034384,4.512507980100801]},"geometry":{"type":"Polygon","coordinates":[[[114.0177943,4.5125741],[114.01783,4.5125747],[114.0178675,4.5125691],[114.0179041,4.5125504],[114.0179194,4.5125276],[114.0179209,4.5124991],[114.0179156,4.5124802],[114.0178987,4.5124628],[114.0178658,4.5124476],[114.017831,4.5124425],[114.0177973,4.5124422],[114.0177642,4.5124488],[114.0177358,4.5124626],[114.0177095,4.5124874],[114.0177082,4.5125211],[114.0177319,4.5125483],[114.0177636,4.5125654],[114.0177943,4.5125741]]]}},{"type":"Feature","id":1311241549,"properties":{"kind":"building","osm":"way/1311241549","code":null,"name":null,"osmName":null,"zh":null,"levels":1,"height":4.2,"base":0,"centre":[114.01828497986932,4.512294496446438]},"geometry":{"type":"Polygon","coordinates":[[[114.0182341,4.5123082],[114.0183217,4.5123322],[114.0183359,4.5122808],[114.0182482,4.5122568],[114.0182341,4.5123082]]]}},{"type":"Feature","id":1311241550,"properties":{"kind":"building","osm":"way/1311241550","code":"FN2","name":"Falcon 2","osmName":null,"zh":null,"levels":1,"height":4.2,"base":0,"centre":[114.01705544068832,4.511954064021609]},"geometry":{"type":"Polygon","coordinates":[[[114.0170414,4.5124992],[114.0171337,4.5124993],[114.0171339,4.5115122],[114.0170419,4.5115121],[114.0170419,4.5115236],[114.0169622,4.5115236],[114.016962,4.5122126],[114.0170415,4.5122126],[114.0170415,4.5123078],[114.0170414,4.5124992]]]}},{"type":"Feature","id":1311241551,"properties":{"kind":"building","osm":"way/1311241551","code":"SK3","name":"Skylark 3","osmName":"Faculty of Engineering and Science","zh":"工程与科学学院","levels":4,"height":15,"base":0,"centre":[114.0162134463715,4.511276256360378]},"geometry":{"type":"Polygon","coordinates":[[[114.0159242,4.5113356],[114.0159653,4.51134],[114.0159617,4.5113715],[114.0160727,4.5113841],[114.0160741,4.5113721],[114.0164078,4.5114144],[114.0164045,4.5114423],[114.0165069,4.5114544],[114.0165301,4.5112601],[114.0164403,4.5112495],[114.0164444,4.5112184],[114.0159763,4.5110769],[114.0159609,4.5111875],[114.0159404,4.5111853],[114.0159242,4.5113356]]]}},{"type":"Feature","id":1311241552,"properties":{"kind":"roof","osm":"way/1311241552","code":null,"name":null,"osmName":null,"zh":null,"levels":1,"height":3.4,"base":2.8,"centre":[114.01726451861784,4.512346275334036]},"geometry":{"type":"Polygon","coordinates":[[[114.0171377,4.51245],[114.0173907,4.5124506],[114.017391,4.5123217],[114.0173912,4.5122422],[114.0171382,4.5122423],[114.0171377,4.51245]]]}},{"type":"Feature","id":1311283739,"properties":{"kind":"roof","osm":"way/1311283739","code":null,"name":null,"osmName":null,"zh":null,"levels":1,"height":3.4,"base":2.8,"centre":[114.01370181561578,4.510879847487162]},"geometry":{"type":"Polygon","coordinates":[[[114.0136317,4.5109358],[114.0136988,4.5109693],[114.0137719,4.5108238],[114.0137049,4.5107904],[114.0136317,4.5109358]]]}},{"type":"Feature","id":1311283746,"properties":{"kind":"building","osm":"way/1311283746","code":"KR1","name":"Kingfisher 1","osmName":"Loagan Bunut","zh":"学生宿舍 Loagan Bunut","levels":3,"height":11.4,"base":0,"centre":[114.01425305826842,4.512951666541359]},"geometry":{"type":"Polygon","coordinates":[[[114.0141278,4.5130812],[114.0144063,4.5130488],[114.0143971,4.5129702],[114.0142811,4.5129837],[114.0142736,4.512919],[114.0143903,4.5129055],[114.0143809,4.5128244],[114.0140979,4.5128572],[114.0141076,4.5129403],[114.0142281,4.5129263],[114.0142357,4.5129908],[114.0141188,4.5130044],[114.0141278,4.5130812]]]}},{"type":"Feature","id":9000000000,"properties":{"kind":"building","osm":null,"code":"FN7","name":"Falcon 7","osmName":null,"zh":null,"levels":2,"height":7.8,"base":0,"centre":[114.0176597,4.51065575]},"geometry":{"type":"Polygon","coordinates":[[[114.0175343,4.5105281],[114.0174656,4.5107135],[114.0177851,4.5107834],[114.0178538,4.510598],[114.0175343,4.5105281]]]}},{"type":"Feature","properties":{"kind":"water","osm":"way/242425451","highway":null,"sport":null,"name":null},"geometry":{"type":"Polygon","coordinates":[[[114.0056333,4.5058399],[114.0059701,4.5056888],[114.0066475,4.5057211],[114.006923,4.505835],[114.0071636,4.5057891],[114.0117993,4.5057904],[114.011818,4.5056123],[114.0222656,4.505579],[114.0222855,4.5061621],[114.022282,4.5067057],[114.0216786,4.506847],[114.0211398,4.5068805],[114.0196413,4.5067798],[114.0191918,4.5066303],[114.0187872,4.5066842],[114.0182026,4.5065985],[114.016486,4.5066343],[114.0157907,4.5067482],[114.0152702,4.5067032],[114.015114,4.5067862],[114.0148427,4.5072439],[114.014702,4.5075951],[114.0146478,4.508219],[114.0142679,4.5083396],[114.0139872,4.5087398],[114.0136812,4.5082736],[114.0131424,4.5083072],[114.0125532,4.5086093],[114.011947,4.5089114],[114.0111557,4.5089114],[114.0106843,4.5084415],[114.0106506,4.5077197],[114.0106675,4.5071994],[114.0102129,4.5069812],[114.0098256,4.5066959],[114.0095731,4.5064609],[114.0081737,4.5065132],[114.0062479,4.5064189],[114.0056406,4.5065171],[114.0055491,4.5061756],[114.0056333,4.5058399]]]}},{"type":"Feature","properties":{"kind":"way","osm":"way/315412089","highway":"service","sport":null,"name":null},"geometry":{"type":"LineString","coordinates":[[114.0152608,4.5106757],[114.0152743,4.5107591],[114.0153724,4.511366],[114.01541,4.5115989],[114.0154351,4.5116455],[114.01555,4.5117776],[114.0155945,4.5118638],[114.0156305,4.5119622],[114.0156511,4.5121382],[114.0156482,4.5123104],[114.0156291,4.5124275],[114.0155935,4.5125472],[114.0154836,4.5127035],[114.0154219,4.5127644],[114.0152716,4.5128612],[114.0152051,4.5129443]]}},{"type":"Feature","properties":{"kind":"way","osm":"way/315412090","highway":"service","sport":null,"name":null},"geometry":{"type":"LineString","coordinates":[[114.018856,4.5131672],[114.0188509,4.5124787],[114.0188365,4.5123467],[114.0187986,4.5121865],[114.0187625,4.5120855],[114.018681,4.5119353],[114.0186053,4.5118309],[114.0184774,4.5117064],[114.0183279,4.5115991],[114.0183009,4.5115797],[114.018262,4.5115566],[114.0180948,4.5114855],[114.0179308,4.5114374],[114.0178737,4.5114206],[114.0177,4.5113711],[114.0173381,4.5112681],[114.0172739,4.5112498],[114.0169409,4.5111562],[114.016681,4.5110831],[114.0164298,4.5110109],[114.0161015,4.5109164],[114.0159819,4.510882],[114.0158019,4.5108302],[114.0155368,4.5107539],[114.0152608,4.5106757],[114.0150684,4.5106176],[114.0149372,4.5105965],[114.0147429,4.5105727],[114.0146077,4.5105904],[114.0144629,4.5106354],[114.014301,4.5107293],[114.0141992,4.5108164],[114.0141,4.5109251],[114.0140169,4.5110538],[114.0139468,4.5112104],[114.0139438,4.5112211],[114.0139166,4.5113183],[114.0139004,4.5114437],[114.0139021,4.5116657],[114.0139028,4.511758],[114.0139316,4.5120187],[114.0139399,4.5132681],[114.0139185,4.5133257],[114.0138788,4.513379],[114.0138083,4.5134484],[114.0136448,4.5135935]]}},{"type":"Feature","properties":{"kind":"way","osm":"way/315412099","highway":"service","sport":null,"name":null},"geometry":{"type":"LineString","coordinates":[[114.0188354,4.5133851],[114.0188526,4.5135761],[114.0188555,4.5140317],[114.0188568,4.5142404],[114.0188597,4.5146925],[114.0188607,4.5148538],[114.0188625,4.5151236]]}},{"type":"Feature","properties":{"kind":"way","osm":"way/315412102","highway":"service","sport":null,"name":null},"geometry":{"type":"LineString","coordinates":[[114.0187453,4.5132501],[114.0184172,4.5132128],[114.0182812,4.5131974],[114.0179911,4.5131645],[114.0178121,4.5131442],[114.0177749,4.51314]]}},{"type":"Feature","properties":{"kind":"way","osm":"way/315412103","highway":"service","sport":null,"name":null},"geometry":{"type":"LineString","coordinates":[[114.0168018,4.5148373],[114.0181063,4.5148385]]}},{"type":"Feature","properties":{"kind":"way","osm":"way/397900114","highway":"service","sport":null,"name":"Jalan Curtin"},"geometry":{"type":"LineString","coordinates":[[114.0225882,4.5068047],[114.0225533,4.5068938],[114.0225131,4.5069687],[114.0224692,4.5070327],[114.0224159,4.5070916],[114.0223461,4.5071628],[114.0215143,4.5080789],[114.0204833,4.5092534],[114.0203556,4.5094109],[114.0202984,4.5095552],[114.0202777,4.5096957],[114.0202887,4.5098068],[114.0203759,4.5099786],[114.0206126,4.5102884],[114.0208136,4.510624],[114.0209357,4.5108686],[114.0209888,4.5109984],[114.0210144,4.511061],[114.021113,4.5113636],[114.0211843,4.5116844],[114.0212036,4.5118424],[114.0212401,4.5121796],[114.0212362,4.5124547],[114.021219,4.5126298],[114.021165,4.5128173],[114.0210441,4.5130324],[114.0209129,4.5131794],[114.0207564,4.513304],[114.0205832,4.5133844],[114.0203765,4.5134265],[114.0202116,4.5134316],[114.0200193,4.5134163],[114.0189613,4.513289]]}},{"type":"Feature","properties":{"kind":"way","osm":"way/515389302","highway":"unclassified","sport":null,"name":null},"geometry":{"type":"LineString","coordinates":[[114.0215783,4.5152294],[114.0189677,4.5152284],[114.0189278,4.5152238],[114.018897,4.5152077],[114.0188755,4.515173],[114.0188625,4.5151236]]}},{"type":"Feature","properties":{"kind":"water","osm":"way/544448859","highway":null,"sport":null,"name":null},"geometry":{"type":"Polygon","coordinates":[[[114.0151318,4.5126657],[114.0151597,4.5126607],[114.0152514,4.5125867],[114.0153237,4.5125791],[114.0153914,4.5125506],[114.0154294,4.5124903],[114.0154537,4.5124231],[114.0154712,4.5123125],[114.0154726,4.5121961],[114.0154684,4.5120605],[114.015452,4.5119909],[114.0154159,4.5118872],[114.0153881,4.51185],[114.0153418,4.5118062],[114.0151925,4.5116981],[114.015118,4.5117277],[114.0150469,4.5117784],[114.0150001,4.5118217],[114.0149593,4.5118536],[114.0149065,4.5119198],[114.0148657,4.5119938],[114.0148476,4.512059],[114.0148391,4.5121414],[114.0148377,4.5122172],[114.0148514,4.512293],[114.0148812,4.5124025],[114.0149232,4.5125058],[114.015052,4.5125526],[114.0151318,4.5126657]]]}},{"type":"Feature","properties":{"kind":"green","osm":"way/544980489","highway":null,"sport":null,"name":null},"geometry":{"type":"Polygon","coordinates":[[[114.0192413,4.5122377],[114.020397,4.5123681],[114.0203011,4.5132116],[114.0191455,4.513081],[114.0192413,4.5122377]]]}},{"type":"Feature","properties":{"kind":"stream","osm":"way/544980495","highway":null,"sport":null,"name":null},"geometry":{"type":"LineString","coordinates":[[114.0151318,4.5126657],[114.0150598,4.5127671],[114.0148669,4.5128858],[114.0147234,4.5130968],[114.0146793,4.5132534],[114.0146946,4.5133655],[114.0147143,4.5134661],[114.0147411,4.513595]]}},{"type":"Feature","properties":{"kind":"stream","osm":"way/544980497","highway":null,"sport":null,"name":null},"geometry":{"type":"LineString","coordinates":[[114.0151925,4.5116981],[114.0151735,4.5113314],[114.0150633,4.5109114],[114.0150255,4.5107123]]}},{"type":"Feature","properties":{"kind":"stream","osm":"way/544980498","highway":null,"sport":null,"name":null},"geometry":{"type":"LineString","coordinates":[[114.0150777,4.5105249],[114.0151965,4.5103169]]}},{"type":"Feature","properties":{"kind":"water","osm":"way/544980499","highway":null,"sport":null,"name":null},"geometry":{"type":"Polygon","coordinates":[[[114.0151965,4.5103169],[114.01522,4.5103314],[114.0154596,4.5099609],[114.0154711,4.5098964],[114.01547,4.5098182],[114.0154473,4.5097659],[114.0153977,4.5097194],[114.0153483,4.5096977],[114.0152745,4.5096808],[114.0150742,4.5097456],[114.0150473,4.5097586],[114.0149262,4.5098361],[114.0148487,4.5099408],[114.0148223,4.510012],[114.0148098,4.5101534],[114.0148289,4.5102135],[114.0148722,4.5102803],[114.0149548,4.510331],[114.0150217,4.5103398],[114.0151965,4.5103169]]]}},{"type":"Feature","properties":{"kind":"way","osm":"way/544980503","highway":"service","sport":null,"name":null},"geometry":{"type":"LineString","coordinates":[[114.016681,4.5110831],[114.0166585,4.5112481]]}},{"type":"Feature","properties":{"kind":"way","osm":"way/599292763","highway":"service","sport":null,"name":null},"geometry":{"type":"LineString","coordinates":[[114.0139021,4.5116657],[114.0143558,4.5117264]]}},{"type":"Feature","properties":{"kind":"way","osm":"way/599292764","highway":"service","sport":null,"name":null},"geometry":{"type":"LineString","coordinates":[[114.0146077,4.5105904],[114.0145978,4.5100803],[114.0145603,4.509913],[114.0144464,4.5097021]]}},{"type":"Feature","properties":{"kind":"green","osm":"way/599292768","highway":null,"sport":"basketball","name":null},"geometry":{"type":"Polygon","coordinates":[[[114.013624,4.5125752],[114.0137643,4.5125761],[114.0137661,4.5123208],[114.0136257,4.5123198],[114.013624,4.5125752]]]}},{"type":"Feature","properties":{"kind":"green","osm":"way/599292769","highway":null,"sport":"futsal","name":null},"geometry":{"type":"Polygon","coordinates":[[[114.0136113,4.5122522],[114.0137824,4.5122504],[114.0137791,4.5119254],[114.0136079,4.5119272],[114.0136113,4.5122522]]]}},{"type":"Feature","properties":{"kind":"green","osm":"way/599627380","highway":null,"sport":"rugby_union","name":null},"geometry":{"type":"Polygon","coordinates":[[[114.0136049,4.5129682],[114.0129735,4.5129764],[114.0129594,4.5118835],[114.0135907,4.5118754],[114.0136049,4.5129682]]]}},{"type":"Feature","properties":{"kind":"way","osm":"way/599627383","highway":"footway","sport":null,"name":null},"geometry":{"type":"LineString","coordinates":[[114.014758,4.5135514],[114.014773,4.5135487],[114.0149884,4.51351],[114.0152031,4.5135],[114.0154687,4.5135267],[114.0156932,4.5135807],[114.0159202,4.5136767],[114.0161007,4.5137793],[114.0162716,4.5139034],[114.0163891,4.5140251],[114.0164903,4.514149],[114.0165628,4.5142571],[114.0166433,4.5143948],[114.0166978,4.5145142],[114.0167687,4.5146929],[114.0168018,4.5148373],[114.0168192,4.5149886]]}},{"type":"Feature","properties":{"kind":"green","osm":"way/626544257","highway":null,"sport":null,"name":"Frisbee Green"},"geometry":{"type":"Polygon","coordinates":[[[114.015434,4.5135098],[114.0154398,4.5132049],[114.0169926,4.5130096],[114.0170833,4.5130098],[114.0171809,4.5130689],[114.0172738,4.5130837],[114.0173619,4.513066],[114.0174388,4.5130306],[114.0175045,4.512958],[114.0175881,4.5148028],[114.0171524,4.514806],[114.0170927,4.514776],[114.0168144,4.514777],[114.016755,4.5145748],[114.016687,4.5144194],[114.0165877,4.51424],[114.0164985,4.5141231],[114.0164023,4.5140179],[114.0162491,4.5138638],[114.016076,4.5137415],[114.015811,4.5136031],[114.0156454,4.5135483],[114.015434,4.5135098]]]}},{"type":"Feature","properties":{"kind":"stream","osm":"way/670354420","highway":null,"sport":null,"name":null},"geometry":{"type":"LineString","coordinates":[[114.0150742,4.5097456],[114.0149759,4.5094781],[114.0148853,4.5093251],[114.0148572,4.5092306],[114.0148568,4.5090922],[114.0148809,4.508958],[114.0148938,4.5086426],[114.0149376,4.5085505],[114.0150668,4.5075871],[114.0151348,4.5068248],[114.015114,4.5067862]]}},{"type":"Feature","properties":{"kind":"stream","osm":"way/689488368","highway":null,"sport":null,"name":null},"geometry":{"type":"LineString","coordinates":[[114.0150255,4.5107123],[114.0150777,4.5105249]]}},{"type":"Feature","properties":{"kind":"parking","osm":"way/699033677","highway":null,"sport":null,"name":null},"geometry":{"type":"Polygon","coordinates":[[[114.0140456,4.5117592],[114.0140675,4.5116053],[114.0144066,4.5116532],[114.0143847,4.511807],[114.0140456,4.5117592]]]}},{"type":"Feature","properties":{"kind":"water","osm":"way/1235776426","highway":null,"sport":null,"name":null},"geometry":{"type":"Polygon","coordinates":[[[114.0190532,4.5107219],[114.0192299,4.5107289],[114.0193786,4.5108103],[114.0194841,4.5107899],[114.019657,4.510823],[114.0197269,4.5108175],[114.0199041,4.5108981],[114.0201425,4.5109071],[114.0202137,4.5109541],[114.0203549,4.5108696],[114.0203926,4.5107617],[114.0203879,4.5106819],[114.0204208,4.5106162],[114.020322,4.5104051],[114.0202596,4.5103164],[114.0202231,4.5104145],[114.0200866,4.5103628],[114.020108,4.510275],[114.0199407,4.5102549],[114.0198563,4.5102563],[114.0198277,4.5102174],[114.0196441,4.5101657],[114.0194652,4.5100672],[114.0193209,4.5100635],[114.0192521,4.5101194],[114.0191939,4.5101031],[114.0189804,4.5099733],[114.0188957,4.5099686],[114.0188627,4.5102596],[114.0188015,4.5103581],[114.0189009,4.5105843],[114.0190532,4.5107219]]]}},{"type":"Feature","properties":{"kind":"way","osm":"way/1235776438","highway":"path","sport":null,"name":null},"geometry":{"type":"LineString","coordinates":[[114.0138083,4.5134484],[114.0138681,4.5136055],[114.0138607,4.5137332],[114.0138194,4.5138059],[114.0135249,4.5141733],[114.0134275,4.5144406],[114.0133217,4.5146173],[114.0132753,4.5148588],[114.0132436,4.5150586],[114.0132693,4.5154247],[114.0133147,4.5156741],[114.0134074,4.5159471],[114.0133687,4.5160556],[114.0132888,4.5160878],[114.0128202,4.5160345],[114.0122918,4.5159863],[114.0120342,4.5159595],[114.0114697,4.5158726],[114.0113527,4.5159137],[114.0113233,4.5160779],[114.0112828,4.5161671],[114.011121,4.5163901],[114.0109769,4.5165714],[114.0107731,4.5168942],[114.0107244,4.5170156],[114.0106243,4.517978],[114.0105887,4.5183707],[114.0105782,4.5187676],[114.0105423,4.5190103],[114.0105352,4.5192079],[114.0104861,4.5196471],[114.0104279,4.5202922]]}},{"type":"Feature","properties":{"kind":"way","osm":"way/1311221498","highway":"service","sport":null,"name":null},"geometry":{"type":"LineString","coordinates":[[114.018856,4.5131672],[114.0188191,4.5131721],[114.018786,4.5131891],[114.0187604,4.5132161],[114.0187453,4.5132501],[114.0187425,4.5132871],[114.0187523,4.513323],[114.0187735,4.5133535],[114.0188019,4.5133743],[114.0188354,4.5133851],[114.0188707,4.5133848],[114.018904,4.5133734],[114.018932,4.513352],[114.0189518,4.5133229],[114.0189613,4.513289],[114.0189596,4.5132539],[114.0189468,4.5132212],[114.0189243,4.5131941],[114.0188925,4.5131748],[114.018856,4.5131672]]}},{"type":"Feature","properties":{"kind":"green","osm":"way/1311221499","highway":null,"sport":"tennis","name":null},"geometry":{"type":"Polygon","coordinates":[[[114.0206866,4.5127211],[114.0207924,4.512731],[114.020813,4.512511],[114.0207072,4.5125011],[114.0206866,4.5127211]]]}},{"type":"Feature","properties":{"kind":"green","osm":"way/1311221500","highway":null,"sport":"tennis","name":null},"geometry":{"type":"Polygon","coordinates":[[[114.0205223,4.5127066],[114.0206281,4.5127165],[114.0206487,4.5124965],[114.0205429,4.5124866],[114.0205223,4.5127066]]]}},{"type":"Feature","properties":{"kind":"way","osm":"way/1311221504","highway":"footway","sport":null,"name":null},"geometry":{"type":"LineString","coordinates":[[114.0203765,4.5134265],[114.0204812,4.5122959],[114.0204639,4.5122579],[114.0203421,4.5122076],[114.0200246,4.5121769]]}},{"type":"Feature","properties":{"kind":"way","osm":"way/1311221505","highway":"service","sport":null,"name":null},"geometry":{"type":"LineString","coordinates":[[114.0188597,4.5146925],[114.0190081,4.5146929],[114.0190111,4.5135765],[114.0188526,4.5135761]]}},{"type":"Feature","properties":{"kind":"way","osm":"way/1311221508","highway":"service","sport":null,"name":null},"geometry":{"type":"LineString","coordinates":[[114.0177465,4.5129866],[114.01772,4.5129854],[114.0176945,4.5129925],[114.0176724,4.513007],[114.0176559,4.5130278],[114.0176467,4.5130525],[114.0176456,4.5130789],[114.0176528,4.5131044],[114.0176676,4.5131263],[114.0176909,4.5131439],[114.0177188,4.5131525],[114.0177479,4.5131512],[114.0177749,4.51314],[114.0177964,4.5131203],[114.0178099,4.5130945],[114.0178138,4.5130656],[114.0178076,4.5130372],[114.0177984,4.5130226],[114.017792,4.5130125],[114.0177713,4.512996],[114.0177465,4.5129866]]}},{"type":"Feature","properties":{"kind":"way","osm":"way/1311221510","highway":"service","sport":null,"name":null},"geometry":{"type":"LineString","coordinates":[[114.0180896,4.5142442],[114.0181238,4.5142441],[114.0182791,4.5142433],[114.0184408,4.5142425],[114.0186013,4.5142417],[114.0188568,4.5142404]]}},{"type":"Feature","properties":{"kind":"way","osm":"way/1311221511","highway":"service","sport":null,"name":null},"geometry":{"type":"LineString","coordinates":[[114.0180869,4.5140331],[114.0181238,4.5140331],[114.0182795,4.5140328],[114.0184402,4.5140325],[114.0185966,4.5140322],[114.0188555,4.5140317]]}},{"type":"Feature","properties":{"kind":"way","osm":"way/1311221513","highway":"service","sport":null,"name":null},"geometry":{"type":"LineString","coordinates":[[114.0184402,4.5140325],[114.0184414,4.5133431]]}},{"type":"Feature","properties":{"kind":"way","osm":"way/1311221515","highway":"service","sport":null,"name":null},"geometry":{"type":"LineString","coordinates":[[114.0182812,4.5131974],[114.0182809,4.513322],[114.0182795,4.5140328],[114.0182791,4.5142433]]}},{"type":"Feature","properties":{"kind":"way","osm":"way/1311221516","highway":"service","sport":null,"name":null},"geometry":{"type":"LineString","coordinates":[[114.0184414,4.5145611],[114.0184408,4.5142425]]}},{"type":"Feature","properties":{"kind":"way","osm":"way/1311221517","highway":"service","sport":null,"name":null},"geometry":{"type":"LineString","coordinates":[[114.0181063,4.5148385],[114.0181237,4.5148385],[114.0186011,4.5148386],[114.0186013,4.5142417]]}},{"type":"Feature","properties":{"kind":"way","osm":"way/1311221524","highway":"cycleway","sport":null,"name":null},"geometry":{"type":"LineString","coordinates":[[114.0180728,4.5130581],[114.0181537,4.5130576],[114.0181518,4.5127346],[114.0180708,4.5127351],[114.0180728,4.5130581]]}},{"type":"Feature","properties":{"kind":"way","osm":"way/1311262961","highway":"service","sport":null,"name":null},"geometry":{"type":"LineString","coordinates":[[114.018233,4.5117279],[114.01821,4.5117117],[114.0181828,4.5117043],[114.0181547,4.5117064],[114.018129,4.5117179],[114.0181087,4.5117374],[114.0180967,4.5117616],[114.0180931,4.5117906],[114.0180987,4.5118158],[114.0181119,4.511838],[114.0181315,4.511855],[114.0181554,4.5118651],[114.0181812,4.5118672],[114.0182069,4.5118609],[114.0182285,4.5118476],[114.0182452,4.5118278],[114.0182549,4.5118039],[114.0182566,4.5117781],[114.0182492,4.511751],[114.018233,4.5117279]]}},{"type":"Feature","properties":{"kind":"way","osm":"way/1311262962","highway":"service","sport":null,"name":null},"geometry":{"type":"LineString","coordinates":[[114.018233,4.5117279],[114.0183279,4.5115991]]}},{"type":"Feature","properties":{"kind":"way","osm":"way/1311262963","highway":"service","sport":null,"name":null},"geometry":{"type":"LineString","coordinates":[[114.0177313,4.5116989],[114.0177983,4.511683],[114.0179607,4.5116992],[114.0180967,4.5117616]]}},{"type":"Feature","properties":{"kind":"way","osm":"way/1311262964","highway":"service","sport":null,"name":null},"geometry":{"type":"LineString","coordinates":[[114.0183103,4.5122589],[114.0183233,4.5121912],[114.0183013,4.5120245],[114.0182267,4.5118798],[114.0182069,4.5118609]]}},{"type":"Feature","properties":{"kind":"way","osm":"way/1311262965","highway":"service","sport":null,"name":null},"geometry":{"type":"LineString","coordinates":[[114.0172739,4.5112498],[114.0172745,4.5115057],[114.0172751,4.5117329],[114.0173071,4.5117328],[114.0173392,4.5117327],[114.0173381,4.5112681]]}},{"type":"Feature","properties":{"kind":"way","osm":"way/1311262966","highway":"service","sport":null,"name":null},"geometry":{"type":"LineString","coordinates":[[114.0172745,4.5115057],[114.0171609,4.5115031],[114.0171573,4.5116584],[114.0172751,4.5117329]]}},{"type":"Feature","properties":{"kind":"way","osm":"way/1311262967","highway":"service","sport":null,"name":null},"geometry":{"type":"LineString","coordinates":[[114.0173053,4.5120117],[114.0173071,4.5117328]]}},{"type":"Feature","properties":{"kind":"way","osm":"way/1311262969","highway":"service","sport":null,"name":null},"geometry":{"type":"LineString","coordinates":[[114.0169409,4.5111562],[114.01694,4.5106937],[114.0169393,4.510344],[114.016939,4.5102011]]}},{"type":"Feature","properties":{"kind":"way","osm":"way/1311262970","highway":"service","sport":null,"name":null},"geometry":{"type":"LineString","coordinates":[[114.0156635,4.5105764],[114.0160192,4.5106786],[114.0161611,4.5107194],[114.0162348,4.5107406],[114.0164885,4.5108135],[114.016711,4.5108775],[114.0167974,4.5108292],[114.0167978,4.510343],[114.0167983,4.5097702]]}},{"type":"Feature","properties":{"kind":"way","osm":"way/1311262971","highway":"service","sport":null,"name":null},"geometry":{"type":"LineString","coordinates":[[114.0167978,4.510343],[114.0169393,4.510344]]}},{"type":"Feature","properties":{"kind":"way","osm":"way/1311262973","highway":"service","sport":null,"name":null},"geometry":{"type":"LineString","coordinates":[[114.0162348,4.5107406],[114.0162291,4.5106272],[114.0160247,4.5106254],[114.0160192,4.5106786]]}},{"type":"Feature","properties":{"kind":"way","osm":"way/1311262974","highway":"service","sport":null,"name":null},"geometry":{"type":"LineString","coordinates":[[114.0155368,4.5107539],[114.0155711,4.5106338],[114.0155926,4.5105991],[114.0156635,4.5105764]]}},{"type":"Feature","properties":{"kind":"way","osm":"way/1311262975","highway":"service","sport":null,"name":null},"geometry":{"type":"LineString","coordinates":[[114.0178629,4.5107411],[114.0179735,4.5107727],[114.0181575,4.5108252]]}},{"type":"Feature","properties":{"kind":"way","osm":"way/1311262976","highway":"service","sport":null,"name":null},"geometry":{"type":"LineString","coordinates":[[114.0178568,4.5107646],[114.0170346,4.5105295]]}},{"type":"Feature","properties":{"kind":"way","osm":"way/1311262977","highway":"service","sport":null,"name":null},"geometry":{"type":"LineString","coordinates":[[114.0170347,4.5106908],[114.017819,4.5109112]]}},{"type":"Feature","properties":{"kind":"way","osm":"way/1311262978","highway":"service","sport":null,"name":null},"geometry":{"type":"LineString","coordinates":[[114.0177811,4.5110574],[114.0170347,4.5108469]]}},{"type":"Feature","properties":{"kind":"way","osm":"way/1311262979","highway":"service","sport":null,"name":null},"geometry":{"type":"LineString","coordinates":[[114.0177423,4.5112077],[114.0170348,4.5110198]]}},{"type":"Feature","properties":{"kind":"way","osm":"way/1311262980","highway":"service","sport":null,"name":null},"geometry":{"type":"LineString","coordinates":[[114.0178968,4.5106101],[114.0170346,4.5103696]]}},{"type":"Feature","properties":{"kind":"way","osm":"way/1311262981","highway":"service","sport":null,"name":null},"geometry":{"type":"LineString","coordinates":[[114.0170346,4.5103696],[114.0170346,4.5105295],[114.0170347,4.5106908],[114.0170347,4.5108469],[114.0170348,4.5110198]]}},{"type":"Feature","properties":{"kind":"way","osm":"way/1311262982","highway":"service","sport":null,"name":null},"geometry":{"type":"LineString","coordinates":[[114.01694,4.5106937],[114.0170347,4.5106908]]}},{"type":"Feature","properties":{"kind":"way","osm":"way/1311262984","highway":"service","sport":null,"name":null},"geometry":{"type":"LineString","coordinates":[[114.0177,4.5113711],[114.0177423,4.5112077]]}},{"type":"Feature","properties":{"kind":"way","osm":"way/1311262985","highway":"service","sport":null,"name":null},"geometry":{"type":"LineString","coordinates":[[114.0177423,4.5112077],[114.0177811,4.5110574],[114.017819,4.5109112],[114.0178568,4.5107646],[114.0178629,4.5107411],[114.0178968,4.5106101]]}},{"type":"Feature","properties":{"kind":"way","osm":"way/1311262986","highway":"service","sport":null,"name":null},"geometry":{"type":"LineString","coordinates":[[114.0179735,4.5107727],[114.0178345,4.5112435],[114.0179713,4.5112807],[114.0179308,4.5114374]]}},{"type":"Feature","properties":{"kind":"way","osm":"way/1311262987","highway":"service","sport":null,"name":null},"geometry":{"type":"LineString","coordinates":[[114.0182785,4.5145487],[114.0182791,4.5142433]]}},{"type":"Feature","properties":{"kind":"way","osm":"way/1311262988","highway":"service","sport":null,"name":null},"geometry":{"type":"LineString","coordinates":[[114.0185966,4.5140322],[114.0186019,4.5133642],[114.0184414,4.5133431],[114.0182809,4.513322],[114.0181238,4.5133013],[114.0181238,4.5140331],[114.0181238,4.5142441],[114.0181237,4.5148385]]}},{"type":"Feature","properties":{"kind":"way","osm":"way/1311262989","highway":"service","sport":null,"name":null},"geometry":{"type":"LineString","coordinates":[[114.0184188,4.5127094],[114.0184175,4.5131011]]}},{"type":"Feature","properties":{"kind":"way","osm":"way/1311262990","highway":"service","sport":null,"name":null},"geometry":{"type":"LineString","coordinates":[[114.0184175,4.5131011],[114.0184172,4.5132128]]}},{"type":"Feature","properties":{"kind":"way","osm":"way/1311262991","highway":"cycleway","sport":null,"name":null},"geometry":{"type":"LineString","coordinates":[[114.0181537,4.5130576],[114.0182262,4.5130766],[114.0182601,4.5130809]]}},{"type":"Feature","properties":{"kind":"way","osm":"way/1311262992","highway":"service","sport":null,"name":null},"geometry":{"type":"LineString","coordinates":[[114.0184175,4.5131011],[114.0185744,4.5131211],[114.018578,4.5127021],[114.0184188,4.5127094],[114.0182642,4.5127164],[114.0182601,4.5130809],[114.0184175,4.5131011]]}},{"type":"Feature","properties":{"kind":"parking","osm":"way/1311262993","highway":null,"sport":null,"name":null},"geometry":{"type":"Polygon","coordinates":[[[114.0180425,4.5140013],[114.0186536,4.5140073],[114.0186599,4.513378],[114.0181416,4.5133728],[114.018138,4.5137324],[114.0180452,4.5137315],[114.0180425,4.5140013]]]}},{"type":"Feature","properties":{"kind":"way","osm":"way/1311262994","highway":"service","sport":null,"name":null},"geometry":{"type":"LineString","coordinates":[[114.0179911,4.5131645],[114.0179911,4.5130003],[114.0179911,4.5126169]]}},{"type":"Feature","properties":{"kind":"parking","osm":"way/1311262995","highway":null,"sport":null,"name":null},"geometry":{"type":"Polygon","coordinates":[[[114.018042,4.5130822],[114.0186143,4.5131598],[114.0186156,4.5126776],[114.0180432,4.512711],[114.018042,4.5130822]]]}},{"type":"Feature","properties":{"kind":"parking","osm":"way/1311262996","highway":null,"sport":null,"name":null},"geometry":{"type":"Polygon","coordinates":[[[114.018949,4.5146514],[114.0190711,4.5146525],[114.0190807,4.5136105],[114.0189588,4.5136094],[114.018949,4.5146514]]]}},{"type":"Feature","properties":{"kind":"parking","osm":"way/1311262997","highway":null,"sport":null,"name":null},"geometry":{"type":"Polygon","coordinates":[[[114.0182299,4.5122016],[114.0183821,4.5122474],[114.0184011,4.5121821],[114.0184018,4.5120707],[114.0183809,4.5119743],[114.0183542,4.5119175],[114.018289,4.5118128],[114.0181544,4.5119077],[114.0181994,4.5119764],[114.0182232,4.5120251],[114.0182408,4.5120794],[114.0182445,4.5121424],[114.0182299,4.5122016]]]}},{"type":"Feature","properties":{"kind":"parking","osm":"way/1311262998","highway":null,"sport":null,"name":null},"geometry":{"type":"Polygon","coordinates":[[[114.0177493,4.5117622],[114.017815,4.5117371],[114.0178832,4.5117359],[114.0179477,4.5117538],[114.0180524,4.5118095],[114.0181174,4.5116688],[114.0179899,4.5116079],[114.0178931,4.5115953],[114.017789,4.5115998],[114.017703,4.5116229],[114.0177493,4.5117622]]]}},{"type":"Feature","properties":{"kind":"parking","osm":"way/1311262999","highway":null,"sport":null,"name":null},"geometry":{"type":"Polygon","coordinates":[[[114.0170622,4.5111004],[114.0176764,4.5112786],[114.0178872,4.5105566],[114.0170507,4.510314],[114.0170622,4.5111004]]]}},{"type":"Feature","properties":{"kind":"parking","osm":"way/1311263000","highway":null,"sport":null,"name":null},"geometry":{"type":"Polygon","coordinates":[[[114.0156784,4.5106629],[114.016749,4.510965],[114.0168737,4.5108951],[114.0168819,4.509769],[114.0167289,4.5097713],[114.0167197,4.5107967],[114.0164847,4.5107296],[114.0162871,4.5107295],[114.0162868,4.5105587],[114.0156987,4.5105611],[114.0156784,4.5106629]]]}},{"type":"Feature","properties":{"kind":"way","osm":"way/1311263001","highway":"service","sport":null,"name":null},"geometry":{"type":"LineString","coordinates":[[114.0157687,4.5110129],[114.0154859,4.5109723],[114.0154629,4.5111317],[114.0154406,4.5112859],[114.0157234,4.5113264],[114.0157461,4.5111694],[114.0157687,4.5110129]]}},{"type":"Feature","properties":{"kind":"way","osm":"way/1311263002","highway":"service","sport":null,"name":null},"geometry":{"type":"LineString","coordinates":[[114.0166585,4.5112481],[114.0163882,4.5111647],[114.0160579,4.5110658],[114.0159353,4.5110286]]}},{"type":"Feature","properties":{"kind":"way","osm":"way/1311263003","highway":"service","sport":null,"name":null},"geometry":{"type":"LineString","coordinates":[[114.0159353,4.5110286],[114.0158643,4.5110219],[114.0157687,4.5110129],[114.0158019,4.5108302]]}},{"type":"Feature","properties":{"kind":"way","osm":"way/1311263004","highway":"service","sport":null,"name":null},"geometry":{"type":"LineString","coordinates":[[114.0154629,4.5111317],[114.0157461,4.5111694]]}},{"type":"Feature","properties":{"kind":"parking","osm":"way/1311263005","highway":null,"sport":null,"name":null},"geometry":{"type":"Polygon","coordinates":[[[114.0153918,4.5113537],[114.0157955,4.511411],[114.0158462,4.511056],[114.0154425,4.5109987],[114.0153918,4.5113537]]]}},{"type":"Feature","properties":{"kind":"parking","osm":"way/1311263006","highway":null,"sport":null,"name":null},"geometry":{"type":"Polygon","coordinates":[[[114.0138635,4.5129074],[114.0139162,4.5129073],[114.0139159,4.5125042],[114.013863,4.5125042],[114.0138635,4.5129074]]]}},{"type":"Feature","properties":{"kind":"parking","osm":"way/1311263007","highway":null,"sport":null,"name":null},"geometry":{"type":"Polygon","coordinates":[[[114.0138606,4.5124088],[114.0139101,4.5124085],[114.0139079,4.5120063],[114.0138583,4.5120066],[114.0138606,4.5124088]]]}},{"type":"Feature","properties":{"kind":"way","osm":"way/1311283740","highway":"service","sport":null,"name":null},"geometry":{"type":"LineString","coordinates":[[114.0139802,4.5105351],[114.0133452,4.5102108]]}},{"type":"Feature","properties":{"kind":"way","osm":"way/1311283741","highway":"service","sport":null,"name":null},"geometry":{"type":"LineString","coordinates":[[114.0141,4.5109251],[114.0138486,4.5107986],[114.0138155,4.5107819],[114.0136643,4.5110804],[114.0136991,4.5110979],[114.0139438,4.5112211]]}},{"type":"Feature","properties":{"kind":"way","osm":"way/1311283742","highway":"service","sport":null,"name":null},"geometry":{"type":"LineString","coordinates":[[114.0135735,4.5113492],[114.0134995,4.5115032],[114.0132512,4.5113846],[114.0133271,4.5112268]]}},{"type":"Feature","properties":{"kind":"way","osm":"way/1311283744","highway":"service","sport":null,"name":null},"geometry":{"type":"LineString","coordinates":[[114.0136991,4.5110979],[114.0135735,4.5113492],[114.0133271,4.5112268],[114.0129348,4.511032],[114.0133452,4.5102108],[114.0134195,4.5100619],[114.0140582,4.510379],[114.0139802,4.5105351],[114.0138486,4.5107986]]}},{"type":"Feature","properties":{"kind":"parking","osm":"way/1311283745","highway":null,"sport":null,"name":null},"geometry":{"type":"Polygon","coordinates":[[[114.0132996,4.5113663],[114.0134866,4.5114588],[114.0135543,4.5113228],[114.0136608,4.5113755],[114.0137497,4.5111969],[114.0135969,4.5111213],[114.0135391,4.5112376],[114.0129521,4.5109473],[114.0132357,4.5103774],[114.0133303,4.5104242],[114.0133803,4.5103237],[114.0138692,4.5105654],[114.0137883,4.5107281],[114.0138941,4.5107804],[114.0139053,4.5107579],[114.0139738,4.5107918],[114.0140618,4.5106152],[114.0139295,4.5105497],[114.0140115,4.5103849],[114.0134341,4.5100991],[114.0133923,4.510183],[114.0132876,4.5101312],[114.0128428,4.5110243],[114.0133459,4.5112734],[114.0132996,4.5113663]]]}},{"type":"Feature","properties":{"kind":"way","osm":"way/1311283747","highway":"service","sport":null,"name":null},"geometry":{"type":"LineString","coordinates":[[114.0139316,4.5120187],[114.0141015,4.5120367],[114.0142071,4.5120479],[114.0144634,4.5120752],[114.0145475,4.5120841]]}},{"type":"Feature","properties":{"kind":"way","osm":"way/1311283748","highway":"service","sport":null,"name":null},"geometry":{"type":"LineString","coordinates":[[114.014097,4.5125754],[114.0141015,4.5120367]]}},{"type":"Feature","properties":{"kind":"parking","osm":"way/1311283749","highway":null,"sport":null,"name":null},"geometry":{"type":"Polygon","coordinates":[[[114.0140103,4.5125929],[114.0141725,4.512595],[114.0141795,4.5120692],[114.0140174,4.5120671],[114.0140103,4.5125929]]]}},{"type":"Feature","properties":{"kind":"way","osm":"way/1311283750","highway":"service","sport":null,"name":null},"geometry":{"type":"LineString","coordinates":[[114.0143735,4.5123574],[114.0142026,4.5123299],[114.0142071,4.5120479]]}},{"type":"Feature","properties":{"kind":"way","osm":"way/1311300841","highway":"service","sport":null,"name":null},"geometry":{"type":"LineString","coordinates":[[114.020687,4.51139],[114.0206143,4.5112124],[114.0209888,4.5109984]]}},{"type":"Feature","properties":{"kind":"way","osm":"way/1311300842","highway":"footway","sport":null,"name":null},"geometry":{"type":"LineString","coordinates":[[114.0155089,4.5128894],[114.0152051,4.5129443],[114.0149242,4.5129729],[114.0148668,4.5129379]]}},{"type":"Feature","properties":{"kind":"way","osm":"way/1311300843","highway":"footway","sport":null,"name":null},"geometry":{"type":"LineString","coordinates":[[114.0172621,4.5125307],[114.0171788,4.5125451],[114.0171041,4.5125849],[114.0170459,4.5126461],[114.0170099,4.5127225],[114.0169998,4.5128062],[114.0170166,4.5128889],[114.0170586,4.5129621],[114.0171216,4.5130185],[114.0172051,4.5130537],[114.0172956,4.5130588],[114.0173826,4.5130334],[114.017456,4.5129802],[114.0175071,4.5129056],[114.0175301,4.5128182],[114.0175223,4.5127281],[114.0174846,4.5126459],[114.0174513,4.5126117],[114.0174214,4.5125811],[114.0173458,4.5125431],[114.0172621,4.5125307]]}},{"type":"Feature","properties":{"kind":"way","osm":"way/1311300844","highway":"footway","sport":null,"name":null},"geometry":{"type":"LineString","coordinates":[[114.0152031,4.5135],[114.0152046,4.5130758],[114.0152051,4.5129443]]}},{"type":"Feature","properties":{"kind":"way","osm":"way/1311300845","highway":"footway","sport":null,"name":null},"geometry":{"type":"LineString","coordinates":[[114.0148085,4.5129025],[114.0147313,4.5128573],[114.0145099,4.5128842],[114.0144761,4.5128747]]}},{"type":"Feature","properties":{"kind":"way","osm":"way/1311300846","highway":"footway","sport":null,"name":null},"geometry":{"type":"LineString","coordinates":[[114.0148668,4.5129379],[114.0148085,4.5129025]]}},{"type":"Feature","properties":{"kind":"way","osm":"way/1311300847","highway":"footway","sport":null,"name":null},"geometry":{"type":"LineString","coordinates":[[114.014376,4.5129678],[114.0144253,4.5129634],[114.0144761,4.5128747],[114.014444,4.5127186],[114.0144086,4.512546],[114.0144372,4.5125408]]}},{"type":"Feature","properties":{"kind":"way","osm":"way/1311300848","highway":"footway","sport":null,"name":null},"geometry":{"type":"LineString","coordinates":[[114.014409,4.5127241],[114.014444,4.5127186],[114.014484,4.5127123]]}},{"type":"Feature","properties":{"kind":"way","osm":"way/1311300849","highway":"footway","sport":null,"name":null},"geometry":{"type":"LineString","coordinates":[[114.0170586,4.5129621],[114.0165029,4.513033],[114.0160204,4.5130946],[114.0154059,4.513173],[114.0153089,4.5131059],[114.0152046,4.5130758]]}},{"type":"Feature","properties":{"kind":"way","osm":"way/1311300850","highway":"footway","sport":null,"name":null},"geometry":{"type":"LineString","coordinates":[[114.0176022,4.5135094],[114.0175283,4.5135087],[114.017528,4.5129387]]}},{"type":"Feature","properties":{"kind":"way","osm":"way/1311300851","highway":"footway","sport":null,"name":null},"geometry":{"type":"LineString","coordinates":[[114.0176294,4.5129376],[114.017528,4.5129387],[114.0175071,4.5129056]]}},{"type":"Feature","properties":{"kind":"green","osm":"way/1311300852","highway":null,"sport":"cricket","name":null},"geometry":{"type":"Polygon","coordinates":[[[114.014003,4.5115707],[114.0151234,4.5116806],[114.0149616,4.5106862],[114.0147083,4.5106738],[114.0144638,4.5107411],[114.0142528,4.5108812],[114.0140963,4.5110802],[114.0140102,4.511318],[114.014003,4.5115707]]]}},{"type":"Feature","properties":{"kind":"way","osm":"way/1311300853","highway":"path","sport":null,"name":null},"geometry":{"type":"LineString","coordinates":[[114.0163256,4.5163658],[114.0165178,4.5161357],[114.0166366,4.5159403],[114.0167464,4.5157014],[114.0168072,4.5154683],[114.0168304,4.5152039],[114.0168192,4.5149886]]}},{"type":"Feature","properties":{"kind":"way","osm":"way/1311505735","highway":"footway","sport":null,"name":null},"geometry":{"type":"LineString","coordinates":[[114.0177986,4.5122035],[114.0177378,4.512275],[114.0176927,4.512328],[114.0174513,4.5126117]]}},{"type":"Feature","properties":{"kind":"way","osm":"way/1311505736","highway":"footway","sport":null,"name":null},"geometry":{"type":"LineString","coordinates":[[114.017391,4.5123217],[114.0174863,4.5123237],[114.0176927,4.512328]]}},{"type":"Feature","properties":{"kind":"way","osm":"way/1311505737","highway":"footway","sport":null,"name":null},"geometry":{"type":"LineString","coordinates":[[114.0174863,4.5123237],[114.0174885,4.5120427],[114.0173917,4.5120416]]}},{"type":"Feature","properties":{"kind":"way","osm":"way/1311505738","highway":"footway","sport":null,"name":null},"geometry":{"type":"LineString","coordinates":[[114.0177378,4.512275],[114.0176512,4.5121355],[114.0175773,4.5119857]]}},{"type":"Feature","properties":{"kind":"way","osm":"way/1311505739","highway":"footway","sport":null,"name":null},"geometry":{"type":"LineString","coordinates":[[114.0180896,4.5142442],[114.0177959,4.5142452],[114.017594,4.5142459]]}},{"type":"Feature","properties":{"kind":"way","osm":"way/1311505740","highway":"footway","sport":null,"name":null},"geometry":{"type":"LineString","coordinates":[[114.0180869,4.5140331],[114.0177967,4.5140338],[114.017594,4.5140343]]}},{"type":"Feature","properties":{"kind":"way","osm":"way/1311505741","highway":"footway","sport":null,"name":null},"geometry":{"type":"LineString","coordinates":[[114.0177958,4.514278],[114.0177959,4.5142452],[114.0177967,4.5140338],[114.0177972,4.5138909]]}},{"type":"Feature","properties":{"kind":"way","osm":"way/1311505742","highway":"footway","sport":null,"name":null},"geometry":{"type":"LineString","coordinates":[[114.0177931,4.5134469],[114.0178121,4.5131442]]}},{"type":"Feature","properties":{"kind":"way","osm":"way/1311505743","highway":"footway","sport":null,"name":null},"geometry":{"type":"LineString","coordinates":[[114.0179911,4.5130003],[114.017825,4.5130008],[114.0177984,4.5130226]]}},{"type":"Feature","properties":{"kind":"way","osm":"way/1311505744","highway":"footway","sport":null,"name":null},"geometry":{"type":"LineString","coordinates":[[114.0152136,4.5113673],[114.0153371,4.5113545],[114.0153724,4.511366],[114.0153952,4.5113734],[114.0157966,4.5114254],[114.0158212,4.5114286],[114.0159087,4.5121609],[114.0160204,4.5130946]]}},{"type":"Feature","properties":{"kind":"way","osm":"way/1311505745","highway":"footway","sport":null,"name":null},"geometry":{"type":"LineString","coordinates":[[114.0159087,4.5121609],[114.016516,4.5122397],[114.0170415,4.5123078]]}},{"type":"Feature","properties":{"kind":"way","osm":"way/1311505746","highway":"footway","sport":null,"name":null},"geometry":{"type":"LineString","coordinates":[[114.0165029,4.513033],[114.0164815,4.5128759],[114.0163759,4.5126185],[114.016516,4.5122397],[114.0165955,4.5120246],[114.0166129,4.5120265]]}},{"type":"Feature","properties":{"kind":"way","osm":"way/1311505747","highway":"footway","sport":null,"name":null},"geometry":{"type":"LineString","coordinates":[[114.0158944,4.5118169],[114.0165689,4.5119042],[114.0169531,4.5119539]]}},{"type":"Feature","properties":{"kind":"way","osm":"way/1311505748","highway":"footway","sport":null,"name":null},"geometry":{"type":"LineString","coordinates":[[114.0147122,4.5135588],[114.0146906,4.513533],[114.0146512,4.513354],[114.0146469,4.5132444],[114.0146598,4.5131562],[114.0147013,4.5130606],[114.0148085,4.5129025],[114.0148284,4.5128731],[114.0150469,4.5127403],[114.0151126,4.5126612],[114.0150418,4.5125682],[114.0149163,4.5125168],[114.0148651,4.5123871],[114.0148422,4.5123046],[114.0148294,4.5122182],[114.0148276,4.5121483],[114.0148352,4.5120632],[114.0148529,4.5119953],[114.0148892,4.5119229],[114.0149499,4.5118462],[114.0150422,4.5117715],[114.015155,4.5116943],[114.0151389,4.511369],[114.0151379,4.511354],[114.015072,4.5110722],[114.015033,4.5109473],[114.0150148,4.5108728],[114.0149957,4.5107602]]}},{"type":"Feature","properties":{"kind":"way","osm":"way/1311505749","highway":"footway","sport":null,"name":null},"geometry":{"type":"LineString","coordinates":[[114.014773,4.5135487],[114.0147263,4.5133516],[114.0147203,4.5132433],[114.0147495,4.5131255],[114.0148668,4.5129379],[114.0149017,4.512906],[114.0150793,4.5127962],[114.0151572,4.5126867],[114.0152485,4.5126071],[114.0153658,4.5125844],[114.0154091,4.5125505],[114.0154554,4.5124611],[114.0154804,4.5123409],[114.015479,4.5120481],[114.0154584,4.5119619],[114.0154223,4.5118787],[114.0153622,4.5118072],[114.0152369,4.5117079],[114.0152136,4.5113673],[114.0152115,4.5113363],[114.0151894,4.5112344],[114.015145,4.5110635],[114.0150913,4.510871],[114.015081,4.5107847],[114.0152743,4.5107591]]}},{"type":"Feature","properties":{"kind":"parking","osm":"way/1311505750","highway":null,"sport":null,"name":null},"geometry":{"type":"Polygon","coordinates":[[[114.0173613,4.5118905],[114.0174089,4.5118903],[114.017407,4.5114033],[114.0173593,4.5114034],[114.0173613,4.5118905]]]}},{"type":"Feature","properties":{"kind":"parking","osm":"way/1311505751","highway":null,"sport":null,"name":null},"geometry":{"type":"Polygon","coordinates":[[[114.0171943,4.5116533],[114.0172422,4.5116536],[114.0172427,4.5115554],[114.0171947,4.5115552],[114.0171943,4.5116533]]]}},{"type":"Feature","properties":{"kind":"way","osm":"way/1311505752","highway":"footway","sport":null,"name":null},"geometry":{"type":"LineString","coordinates":[[114.0151389,4.511369],[114.0152136,4.5113673]]}},{"type":"Feature","properties":{"kind":"way","osm":"way/1530846271","highway":"footway","sport":null,"name":null},"geometry":{"type":"LineString","coordinates":[[114.0163882,4.5111647],[114.0164298,4.5110109],[114.0164885,4.5108135]]}},{"type":"Feature","properties":{"kind":"way","osm":"way/1530846272","highway":"service","sport":null,"name":null},"geometry":{"type":"LineString","coordinates":[[114.0166585,4.5112481],[114.0165689,4.5119042]]}},{"type":"Feature","properties":{"kind":"way","osm":"way/1530846273","highway":"service","sport":null,"name":null},"geometry":{"type":"LineString","coordinates":[[114.0159819,4.510882],[114.0159353,4.5110286]]}},{"type":"Feature","properties":{"kind":"way","osm":"way/1530846274","highway":"footway","sport":null,"name":null},"geometry":{"type":"LineString","coordinates":[[114.0160579,4.5110658],[114.0160891,4.5109601],[114.0161015,4.5109164],[114.0161611,4.5107194]]}},{"type":"Feature","properties":{"kind":"way","osm":"way/1530846275","highway":"footway","sport":null,"name":null},"geometry":{"type":"LineString","coordinates":[[114.0157966,4.5114254],[114.0158115,4.5114037],[114.0158643,4.5110219]]}},{"type":"Feature","properties":{"kind":"way","osm":"way/1530846276","highway":"footway","sport":null,"name":null},"geometry":{"type":"LineString","coordinates":[[114.0144634,4.5120752],[114.0144677,4.5119749],[114.0144812,4.5119535],[114.0147735,4.5119662],[114.0150706,4.5116233],[114.01508,4.5116119],[114.0150697,4.5113821],[114.015079,4.5113692],[114.015119,4.5113686],[114.0151389,4.511369]]}}]}
